{"type": "FeatureCollection", "features": [ {"type": "Feature", "properties": {"norad_id": 37216, "name": "COSMO-SKYMED 4", "group": "resource", "lat": 61.21171756626316, "lon": 149.52038450194908, "alt_km": 615.6614613362817, "timestamp": "2025-12-08T17:43:04.550781+00:00", "meta": {"OBJECT_NAME": "COSMO-SKYMED 4", "OBJECT_ID": "2010-060A", "EPOCH": "2025-12-08T06:05:47.477472", "MEAN_MOTION": 14.82160726, "ECCENTRICITY": 0.00013658, "INCLINATION": 97.8813, "RA_OF_ASC_NODE": 163.645, "ARG_OF_PERICENTER": 82.9679, "MEAN_ANOMALY": 277.169, "EPHEMERIS_TYPE": 0, "CLASSIFICATION_TYPE": "U", "NORAD_CAT_ID": 37216, "ELEMENT_SET_NO": 999, "REV_AT_EPOCH": 81628, "BSTAR": 0.00014414357, "MEAN_MOTION_DOT": 1.096e-05, "MEAN_MOTION_DDOT": 0}, "tle": {"line1": "1 37216U 10060A   25342.25402173  .00001096  00000+0  14414-3 0  9998", "line2": "2 37216  97.8813 163.6450 0001365  82.9679 277.1690 14.82160726816282"}}, "geometry": {"type": "Point", "coordinates": [149.52038450194908, 61.21171756626316]}}, {"type": "Feature", "properties": {"norad_id": 37387, "name": "RESOURCESAT-2", "group": "resource", "lat": 1.5674778809626377, "lon": -133.4495317983228, "alt_km": 825.4357545372495, "timestamp": "2025-12-08T17:43:04.550792+00:00", "meta": {"OBJECT_NAME": "RESOURCESAT-2", "OBJECT_ID": "2011-015A", "EPOCH": "2025-12-08T06:44:50.218656", "MEAN_MOTION": 14.21594742, "ECCENTRICITY": 0.00066271, "INCLINATION": 98.7882, "RA_OF_ASC_NODE": 45.8529, "ARG_OF_PERICENTER": 54.1625, "MEAN_ANOMALY": 306.0167, "EPHEMERIS_TYPE": 0, "CLASSIFICATION_TYPE": "U", "NORAD_CAT_ID": 37387, "ELEMENT_SET_NO": 999, "REV_AT_EPOCH": 75905, "BSTAR": 0.00016802751, "MEAN_MOTION_DOT": 3.24e-06, "MEAN_MOTION_DDOT": 0}, "tle": {"line1": "1 37387U 11015A   25342.28113679  .00000324  00000+0  16803-3 0  9998", "line2": "2 37387  98.7882  45.8529 0006627  54.1625 306.0167 14.21594742759057"}}, "geometry": {"type": "Point", "coordinates": [-133.4495317983228, 1.5674778809626377]}}, {"type": "Feature", "properties": {"norad_id": 37781, "name": "HAIYANG-2A", "group": "resource", "lat": 57.58638906749603, "lon": 178.75282072392915, "alt_km": 961.3742273165562, "timestamp": "2025-12-08T17:43:04.550802+00:00", "meta": {"OBJECT_NAME": "HAIYANG-2A", "OBJECT_ID": "2011-043A", "EPOCH": "2025-12-08T06:41:00.690144", "MEAN_MOTION": 13.78834721, "ECCENTRICITY": 0.00016657, "INCLINATION": 99.3378, "RA_OF_ASC_NODE": 343.2818, "ARG_OF_PERICENTER": 90.3352, "MEAN_ANOMALY": 269.799, "EPHEMERIS_TYPE": 0, "CLASSIFICATION_TYPE": "U", "NORAD_CAT_ID": 37781, "ELEMENT_SET_NO": 999, "REV_AT_EPOCH": 72037, "BSTAR": 4.5016088e-05, "MEAN_MOTION_DOT": 2e-08, "MEAN_MOTION_DDOT": 0}, "tle": {"line1": "1 37781U 11043A   25342.27848021  .00000002  00000+0  45016-4 0  9994", "line2": "2 37781  99.3378 343.2818 0001665  90.3352 269.7990 13.78834721720371"}}, "geometry": {"type": "Point", "coordinates": [178.75282072392915, 57.58638906749603]}}, {"type": "Feature", "properties": {"norad_id": 37791, "name": "RASAT", "group": "resource", "lat": 36.14008108143792, "lon": 66.1115329306538, "alt_km": 653.5043068014875, "timestamp": "2025-12-08T17:43:04.550813+00:00", "meta": {"OBJECT_NAME": "RASAT", "OBJECT_ID": "2011-044D", "EPOCH": "2025-12-08T06:11:49.526304", "MEAN_MOTION": 14.67900599, "ECCENTRICITY": 0.00219196, "INCLINATION": 98.0655, "RA_OF_ASC_NODE": 71.5826, "ARG_OF_PERICENTER": 78.6006, "MEAN_ANOMALY": 303.0157, "EPHEMERIS_TYPE": 0, "CLASSIFICATION_TYPE": "U", "NORAD_CAT_ID": 37791, "ELEMENT_SET_NO": 999, "REV_AT_EPOCH": 76517, "BSTAR": 0.00023090736, "MEAN_MOTION_DOT": 1.276e-05, "MEAN_MOTION_DDOT": 0}, "tle": {"line1": "1 37791U 11044D   25342.25821211  .00001276  00000+0  23091-3 0  9998", "line2": "2 37791  98.0655  71.5826 0021919  78.6006 303.0157 14.67900599765175"}}, "geometry": {"type": "Point", "coordinates": [66.1115329306538, 36.14008108143792]}}, {"type": "Feature", "properties": {"norad_id": 37841, "name": "SRMSAT", "group": "resource", "lat": -11.863611281765376, "lon": -12.48461155993082, "alt_km": 848.0776526295167, "timestamp": "2025-12-08T17:43:04.550830+00:00", "meta": {"OBJECT_NAME": "SRMSAT", "OBJECT_ID": "2011-058D", "EPOCH": "2025-12-08T03:51:52.248096", "MEAN_MOTION": 14.11508975, "ECCENTRICITY": 0.00117025, "INCLINATION": 19.97, "RA_OF_ASC_NODE": 135.6633, "ARG_OF_PERICENTER": 262.6363, "MEAN_ANOMALY": 254.9906, "EPHEMERIS_TYPE": 0, "CLASSIFICATION_TYPE": "U", "NORAD_CAT_ID": 37841, "ELEMENT_SET_NO": 999, "REV_AT_EPOCH": 73079, "BSTAR": 0.00013286554, "MEAN_MOTION_DOT": 5.1e-06, "MEAN_MOTION_DDOT": 0}, "tle": {"line1": "1 37841U 11058D   25342.16102139  .00000510  00000+0  13287-3 0  9996", "line2": "2 37841  19.9700 135.6633 0011702 262.6363 254.9906 14.11508975730799"}}, "geometry": {"type": "Point", "coordinates": [-12.48461155993082, -11.863611281765376]}}, {"type": "Feature", "properties": {"norad_id": 38012, "name": "PLEIADES 1A", "group": "resource", "lat": -33.362766357789056, "lon": 61.00523169913178, "alt_km": 704.3302291673053, "timestamp": "2025-12-08T17:43:04.550841+00:00", "meta": {"OBJECT_NAME": "PLEIADES 1A", "OBJECT_ID": "2011-076F", "EPOCH": "2025-12-08T06:32:02.471712", "MEAN_MOTION": 14.5855541, "ECCENTRICITY": 0.0001322, "INCLINATION": 98.183, "RA_OF_ASC_NODE": 55.1097, "ARG_OF_PERICENTER": 78.5417, "MEAN_ANOMALY": 322.4223, "EPHEMERIS_TYPE": 0, "CLASSIFICATION_TYPE": "U", "NORAD_CAT_ID": 38012, "ELEMENT_SET_NO": 999, "REV_AT_EPOCH": 74416, "BSTAR": 0.00019461229, "MEAN_MOTION_DOT": 8.59e-06, "MEAN_MOTION_DDOT": 0}, "tle": {"line1": "1 38012U 11076F   25342.27225083  .00000859  00000+0  19461-3 0  9999", "line2": "2 38012  98.1830  55.1097 0001322  78.5417 322.4223 14.58555410744160"}}, "geometry": {"type": "Point", "coordinates": [61.00523169913178, -33.362766357789056]}}, {"type": "Feature", "properties": {"norad_id": 38038, "name": "ZIYUAN 1-02C (ZY 1-02C)", "group": "resource", "lat": 10.048308079540956, "lon": -129.66778901546587, "alt_km": 761.9382972788835, "timestamp": "2025-12-08T17:43:04.550853+00:00", "meta": {"OBJECT_NAME": "ZIYUAN 1-02C (ZY 1-02C)", "OBJECT_ID": "2011-079A", "EPOCH": "2025-12-08T07:16:39.260352", "MEAN_MOTION": 14.38005118, "ECCENTRICITY": 0.00070158, "INCLINATION": 98.4341, "RA_OF_ASC_NODE": 48.3987, "ARG_OF_PERICENTER": 150.8447, "MEAN_ANOMALY": 288.16, "EPHEMERIS_TYPE": 0, "CLASSIFICATION_TYPE": "U", "NORAD_CAT_ID": 38038, "ELEMENT_SET_NO": 999, "REV_AT_EPOCH": 73177, "BSTAR": 0.00034408412, "MEAN_MOTION_DOT": 9.98e-06, "MEAN_MOTION_DDOT": 0}, "tle": {"line1": "1 38038U 11079A   25342.30323218  .00000998  00000+0  34408-3 0  9995", "line2": "2 38038  98.4341  48.3987 0007015 150.8447 288.1600 14.38005118731775"}}, "geometry": {"type": "Point", "coordinates": [-129.66778901546587, 10.048308079540956]}}, {"type": "Feature", "properties": {"norad_id": 38046, "name": "ZIYUAN 3-1 (ZY 3-1)", "group": "resource", "lat": -71.7865494823512, "lon": -153.4492210510215, "alt_km": 373.1177941000942, "timestamp": "2025-12-08T17:43:04.550864+00:00", "meta": {"OBJECT_NAME": "ZIYUAN 3-1 (ZY 3-1)", "OBJECT_ID": "2012-001A", "EPOCH": "2025-12-08T07:26:59.518176", "MEAN_MOTION": 15.67728474, "ECCENTRICITY": 0.00019363, "INCLINATION": 97.1758, "RA_OF_ASC_NODE": 48.627, "ARG_OF_PERICENTER": 11.6453, "MEAN_ANOMALY": 348.4853, "EPHEMERIS_TYPE": 0, "CLASSIFICATION_TYPE": "U", "NORAD_CAT_ID": 38046, "ELEMENT_SET_NO": 999, "REV_AT_EPOCH": 77427, "BSTAR": 0.00073374849, "MEAN_MOTION_DOT": 0.00080758, "MEAN_MOTION_DDOT": 0}, "tle": {"line1": "1 38046U 12001A   25342.31041109  .00080758  00000+0  73375-3 0  9995", "line2": "2 38046  97.1758  48.6270 0001936  11.6453 348.4853 15.67728474774279"}}, "geometry": {"type": "Point", "coordinates": [-153.4492210510215, -71.7865494823512]}}, {"type": "Feature", "properties": {"norad_id": 38338, "name": "ARIRANG-3 (KOMPSAT-3)", "group": "resource", "lat": 1.4597909823718487, "lon": 117.51158126097447, "alt_km": 694.4500820168796, "timestamp": "2025-12-08T17:43:04.550875+00:00", "meta": {"OBJECT_NAME": "ARIRANG-3 (KOMPSAT-3)", "OBJECT_ID": "2012-025B", "EPOCH": "2025-12-08T07:02:48.824160", "MEAN_MOTION": 14.61704061, "ECCENTRICITY": 0.0005677, "INCLINATION": 98.3318, "RA_OF_ASC_NODE": 296.8497, "ARG_OF_PERICENTER": 353.2279, "MEAN_ANOMALY": 6.8844, "EPHEMERIS_TYPE": 0, "CLASSIFICATION_TYPE": "U", "NORAD_CAT_ID": 38338, "ELEMENT_SET_NO": 999, "REV_AT_EPOCH": 72345, "BSTAR": 0.00025035128, "MEAN_MOTION_DOT": 1.199e-05, "MEAN_MOTION_DDOT": 0}, "tle": {"line1": "1 38338U 12025B   25342.29362065  .00001199  00000+0  25035-3 0  9991", "line2": "2 38338  98.3318 296.8497 0005677 353.2279   6.8844 14.61704061723451"}}, "geometry": {"type": "Point", "coordinates": [117.51158126097447, 1.4597909823718487]}}, {"type": "Feature", "properties": {"norad_id": 38709, "name": "EXACTVIEW-1 (ADS-1B)", "group": "resource", "lat": -14.552293600304218, "lon": 93.39247025887077, "alt_km": 806.0620295391236, "timestamp": "2025-12-08T17:43:04.550886+00:00", "meta": {"OBJECT_NAME": "EXACTVIEW-1 (ADS-1B)", "OBJECT_ID": "2012-039C", "EPOCH": "2025-12-08T07:40:30.627552", "MEAN_MOTION": 14.24905406, "ECCENTRICITY": 0.00109037, "INCLINATION": 98.9635, "RA_OF_ASC_NODE": 90.6172, "ARG_OF_PERICENTER": 6.9772, "MEAN_ANOMALY": 353.1557, "EPHEMERIS_TYPE": 0, "CLASSIFICATION_TYPE": "U", "NORAD_CAT_ID": 38709, "ELEMENT_SET_NO": 999, "REV_AT_EPOCH": 69552, "BSTAR": 0.00017039039, "MEAN_MOTION_DOT": 3.52e-06, "MEAN_MOTION_DDOT": 0}, "tle": {"line1": "1 38709U 12039C   25342.31979893  .00000352  00000+0  17039-3 0  9999", "line2": "2 38709  98.9635  90.6172 0010903   6.9772 353.1557 14.24905406695529"}}, "geometry": {"type": "Point", "coordinates": [93.39247025887077, -14.552293600304218]}}]}